[
    {
        "Altitude(m)": 605470.7523126412,
        "Argument of Periapsis(deg)": 0.0,
        "Eccentricity": 0.0,
        "Inclination(deg)": 60.0,
        "Latitude(deg)": 27.988083784790486,
        "Longitude(deg)": -147.7370087059643,
        "Mean Anomaly(deg)": 147.27269999999996,
        "RAAN(deg)": 150.0,
        "Satellite Name": "Test1 669",
        "Satellite Number": 669,
        "Semi-Major Axis(m)": 6980739.136638005,
        "Time(s)": 0
    },
    {
        "Altitude(m)": 605395.7905028594,
        "Argument of Periapsis(deg)": 0.00010418945913296404,
        "Eccentricity": 0.0,
        "Inclination(deg)": 60.0,
        "Latitude(deg)": 27.473773954375478,
        "Longitude(deg)": -147.38382227087905,
        "Mean Anomaly(deg)": 147.8928061454618,
        "RAAN(deg)": 149.99957995086027,
        "Satellite Name": "Test1 669",
        "Satellite Number": 669,
        "Semi-Major Axis(m)": 6980739.136638005,
        "Time(s)": 10
    }
]